NIMIQ 2                 
1 27632U 02062A   26065.55989566 -.00000071  00000+0  00000+0 0  9999
2 27632   9.2096  57.9600 0006549 292.5800 266.1071  1.00272883 43152
ANIK F2                 
1 28378U 04027A   26065.55954899 -.00000053  00000+0  00000+0 0  9991
2 28378   3.0199  80.8187 0003169 298.3870 235.3936  1.00271994 40233
ANIK F1R                
1 28868U 05036A   26065.56032899 -.00000078  00000+0  00000+0 0  9991
2 28868   4.0502  77.8643 0003088 305.7259 235.1157  1.00272466 45427
ANIK F3                 
1 31102U 07009A   26065.55807565 -.00000005  00000+0  00000+0 0  9997
2 31102   0.9322  85.1831 0002780 257.7799 263.5130  1.00270796 45533
NIMIQ 4                 
1 33373U 08044A   26065.56535568 -.00000224  00000+0  00000+0 0  9994
2 33373   0.0043 181.2160 0002132 182.6996 281.8720  1.00270843 63952
TELSTAR 11N             
1 34111U 09009A   26065.50278979 -.00000255  00000+0  00000+0 0  9995
2 34111   0.0188 144.0631 0002325 198.3425 325.2543  1.00273419 45215
TERRESTAR-1             
1 35496U 09035A   26065.55954899 -.00000059  00000+0  00000+0 0  9990
2 35496   5.0964  48.8314 0002934 304.2034 261.6873  1.00273641 61100
NIMIQ 5                 
1 35873U 09050A   26065.78098332 -.00000260  00000+0  00000+0 0  9996
2 35873   0.0469 268.4835 0002651  82.8008  21.6529  1.00272480 60312
SKYTERRA 1              
1 37218U 10061A   26065.56145567 -.00000121  00000+0  00000+0 0  9990
2 37218   4.9068  50.9124 0001550 303.7078 270.4520  1.00272913 56163
TELSTAR 14R             
1 37602U 11021A   26065.78297667 -.00000283  00000+0  00000+0 0  9996
2 37602   0.0234 249.8663 0002392 104.4855  29.0140  1.00272494 54802
NIMIQ 6                 
1 38342U 12026A   26065.34956243 -.00000178  00000+0  00000+0 0  9991
2 38342   0.0509 279.5517 0002588  64.8171 214.4242  1.00270837 49383
ANIK G1                 
1 39127U 13014A   26065.56032899 -.00000078  00000+0  00000+0 0  9996
2 39127   0.0497 268.7446 0002933  57.8260 292.1094  1.00272006 47226
TELSTAR 12V             
1 41036U 15068A   26065.29331552 -.00000124  00000+0  00000+0 0  9999
2 41036   0.0104 210.8243 0002405 142.6746 261.1031  1.00272301 37596
VIASAT-2                
1 42740U 17029A   26064.07020973 -.00000274  00000+0  00000+0 0  9994
2 42740   0.0216 241.0889 0000570 139.0997  97.9902  1.00271692 32166
LEO 1 (LEO VANTAGE 1)   
1 43113U 18004C   26065.77390384  .00005931  00000+0  41094-3 0  9993
2 43113  99.2481 330.7154 0353186  33.8286 328.4910 14.67149792422461
TELSTAR 19V             
1 43562U 18059A   26064.49940098 -.00000287  00000+0  00000+0 0  9990
2 43562   0.0204 164.1099 0000696 262.4286 213.4631  1.00271487 28100
TELSTAR 18V             
1 43611U 18069A   26064.78794817  .00000000  00000+0  00000+0 0  9996
2 43611   0.0206 171.4994 0002046 178.9200 234.7731  1.00267957 27596
