[{"OBJECT_NAME":"NIMIQ 2","OBJECT_ID":"2002-062A","EPOCH":"2026-03-06T13:26:14.985024","MEAN_MOTION":1.00272883,"ECCENTRICITY":0.00065493,"INCLINATION":9.2096,"RA_OF_ASC_NODE":57.96,"ARG_OF_PERICENTER":292.58,"MEAN_ANOMALY":266.1071,"EPHEMERIS_TYPE":0,"CLASSIFICATION_TYPE":"U","NORAD_CAT_ID":27632,"ELEMENT_SET_NO":999,"REV_AT_EPOCH":4315,"BSTAR":0,"MEAN_MOTION_DOT":-7.1e-7,"MEAN_MOTION_DDOT":0},{"OBJECT_NAME":"ANIK F2","OBJECT_ID":"2004-027A","EPOCH":"2026-03-06T13:25:45.032736","MEAN_MOTION":1.00271994,"ECCENTRICITY":0.00031696,"INCLINATION":3.0199,"RA_OF_ASC_NODE":80.8187,"ARG_OF_PERICENTER":298.387,"MEAN_ANOMALY":235.3936,"EPHEMERIS_TYPE":0,"CLASSIFICATION_TYPE":"U","NORAD_CAT_ID":28378,"ELEMENT_SET_NO":999,"REV_AT_EPOCH":4023,"BSTAR":0,"MEAN_MOTION_DOT":-5.3e-7,"MEAN_MOTION_DDOT":0},{"OBJECT_NAME":"ANIK F1R","OBJECT_ID":"2005-036A","EPOCH":"2026-03-06T13:26:52.424736","MEAN_MOTION":1.00272466,"ECCENTRICITY":0.00030888,"INCLINATION":4.0502,"RA_OF_ASC_NODE":77.8643,"ARG_OF_PERICENTER":305.7259,"MEAN_ANOMALY":235.1157,"EPHEMERIS_TYPE":0,"CLASSIFICATION_TYPE":"U","NORAD_CAT_ID":28868,"ELEMENT_SET_NO":999,"REV_AT_EPOCH":4542,"BSTAR":0,"MEAN_MOTION_DOT":-7.8e-7,"MEAN_MOTION_DDOT":0},{"OBJECT_NAME":"ANIK F3","OBJECT_ID":"2007-009A","EPOCH":"2026-03-06T13:23:37.736160","MEAN_MOTION":1.00270796,"ECCENTRICITY":0.00027803,"INCLINATION":0.9322,"RA_OF_ASC_NODE":85.1831,"ARG_OF_PERICENTER":257.7799,"MEAN_ANOMALY":263.513,"EPHEMERIS_TYPE":0,"CLASSIFICATION_TYPE":"U","NORAD_CAT_ID":31102,"ELEMENT_SET_NO":999,"REV_AT_EPOCH":4553,"BSTAR":0,"MEAN_MOTION_DOT":-5.0e-8,"MEAN_MOTION_DDOT":0},{"OBJECT_NAME":"NIMIQ 4","OBJECT_ID":"2008-044A","EPOCH":"2026-03-06T13:34:06.730752","MEAN_MOTION":1.00270843,"ECCENTRICITY":0.00021329,"INCLINATION":0.0043,"RA_OF_ASC_NODE":181.216,"ARG_OF_PERICENTER":182.6996,"MEAN_ANOMALY":281.872,"EPHEMERIS_TYPE":0,"CLASSIFICATION_TYPE":"U","NORAD_CAT_ID":33373,"ELEMENT_SET_NO":999,"REV_AT_EPOCH":6395,"BSTAR":0,"MEAN_MOTION_DOT":-2.24e-6,"MEAN_MOTION_DDOT":0},{"OBJECT_NAME":"TELSTAR 11N","OBJECT_ID":"2009-009A","EPOCH":"2026-03-06T12:04:01.037856","MEAN_MOTION":1.00273419,"ECCENTRICITY":0.00023255,"INCLINATION":0.0188,"RA_OF_ASC_NODE":144.0631,"ARG_OF_PERICENTER":198.3425,"MEAN_ANOMALY":325.2543,"EPHEMERIS_TYPE":0,"CLASSIFICATION_TYPE":"U","NORAD_CAT_ID":34111,"ELEMENT_SET_NO":999,"REV_AT_EPOCH":4521,"BSTAR":0,"MEAN_MOTION_DOT":-2.55e-6,"MEAN_MOTION_DDOT":0},{"OBJECT_NAME":"TERRESTAR-1","OBJECT_ID":"2009-035A","EPOCH":"2026-03-06T13:25:45.032736","MEAN_MOTION":1.00273641,"ECCENTRICITY":0.0002934,"INCLINATION":5.0964,"RA_OF_ASC_NODE":48.8314,"ARG_OF_PERICENTER":304.2034,"MEAN_ANOMALY":261.6873,"EPHEMERIS_TYPE":0,"CLASSIFICATION_TYPE":"U","NORAD_CAT_ID":35496,"ELEMENT_SET_NO":999,"REV_AT_EPOCH":6110,"BSTAR":0,"MEAN_MOTION_DOT":-5.9e-7,"MEAN_MOTION_DDOT":0},{"OBJECT_NAME":"NIMIQ 5","OBJECT_ID":"2009-050A","EPOCH":"2026-03-06T18:44:36.958848","MEAN_MOTION":1.0027248,"ECCENTRICITY":0.0002651,"INCLINATION":0.0469,"RA_OF_ASC_NODE":268.4835,"ARG_OF_PERICENTER":82.8008,"MEAN_ANOMALY":21.6529,"EPHEMERIS_TYPE":0,"CLASSIFICATION_TYPE":"U","NORAD_CAT_ID":35873,"ELEMENT_SET_NO":999,"REV_AT_EPOCH":6031,"BSTAR":0,"MEAN_MOTION_DOT":-2.6e-6,"MEAN_MOTION_DDOT":0},{"OBJECT_NAME":"SKYTERRA 1","OBJECT_ID":"2010-061A","EPOCH":"2026-03-06T13:28:29.769888","MEAN_MOTION":1.00272913,"ECCENTRICITY":0.00015506,"INCLINATION":4.9068,"RA_OF_ASC_NODE":50.9124,"ARG_OF_PERICENTER":303.7078,"MEAN_ANOMALY":270.452,"EPHEMERIS_TYPE":0,"CLASSIFICATION_TYPE":"U","NORAD_CAT_ID":37218,"ELEMENT_SET_NO":999,"REV_AT_EPOCH":5616,"BSTAR":0,"MEAN_MOTION_DOT":-1.21e-6,"MEAN_MOTION_DDOT":0},{"OBJECT_NAME":"TELSTAR 14R","OBJECT_ID":"2011-021A","EPOCH":"2026-03-06T18:47:29.184288","MEAN_MOTION":1.00272494,"ECCENTRICITY":0.0002392,"INCLINATION":0.0234,"RA_OF_ASC_NODE":249.8663,"ARG_OF_PERICENTER":104.4855,"MEAN_ANOMALY":29.014,"EPHEMERIS_TYPE":0,"CLASSIFICATION_TYPE":"U","NORAD_CAT_ID":37602,"ELEMENT_SET_NO":999,"REV_AT_EPOCH":5480,"BSTAR":0,"MEAN_MOTION_DOT":-2.83e-6,"MEAN_MOTION_DDOT":0},{"OBJECT_NAME":"NIMIQ 6","OBJECT_ID":"2012-026A","EPOCH":"2026-03-06T08:23:22.193952","MEAN_MOTION":1.00270837,"ECCENTRICITY":0.00025883,"INCLINATION":0.0509,"RA_OF_ASC_NODE":279.5517,"ARG_OF_PERICENTER":64.8171,"MEAN_ANOMALY":214.4242,"EPHEMERIS_TYPE":0,"CLASSIFICATION_TYPE":"U","NORAD_CAT_ID":38342,"ELEMENT_SET_NO":999,"REV_AT_EPOCH":4938,"BSTAR":0,"MEAN_MOTION_DOT":-1.78e-6,"MEAN_MOTION_DDOT":0},{"OBJECT_NAME":"ANIK G1","OBJECT_ID":"2013-014A","EPOCH":"2026-03-06T13:26:52.424736","MEAN_MOTION":1.00272006,"ECCENTRICITY":0.00029337,"INCLINATION":0.0497,"RA_OF_ASC_NODE":268.7446,"ARG_OF_PERICENTER":57.826,"MEAN_ANOMALY":292.1094,"EPHEMERIS_TYPE":0,"CLASSIFICATION_TYPE":"U","NORAD_CAT_ID":39127,"ELEMENT_SET_NO":999,"REV_AT_EPOCH":4722,"BSTAR":0,"MEAN_MOTION_DOT":-7.8e-7,"MEAN_MOTION_DDOT":0},{"OBJECT_NAME":"TELSTAR 12V","OBJECT_ID":"2015-068A","EPOCH":"2026-03-06T07:02:22.460928","MEAN_MOTION":1.00272301,"ECCENTRICITY":0.00024054,"INCLINATION":0.0104,"RA_OF_ASC_NODE":210.8243,"ARG_OF_PERICENTER":142.6746,"MEAN_ANOMALY":261.1031,"EPHEMERIS_TYPE":0,"CLASSIFICATION_TYPE":"U","NORAD_CAT_ID":41036,"ELEMENT_SET_NO":999,"REV_AT_EPOCH":3759,"BSTAR":0,"MEAN_MOTION_DOT":-1.24e-6,"MEAN_MOTION_DDOT":0},{"OBJECT_NAME":"VIASAT-2","OBJECT_ID":"2017-029A","EPOCH":"2026-03-05T01:41:06.120672","MEAN_MOTION":1.00271692,"ECCENTRICITY":5.707e-5,"INCLINATION":0.0216,"RA_OF_ASC_NODE":241.0889,"ARG_OF_PERICENTER":139.0997,"MEAN_ANOMALY":97.9902,"EPHEMERIS_TYPE":0,"CLASSIFICATION_TYPE":"U","NORAD_CAT_ID":42740,"ELEMENT_SET_NO":999,"REV_AT_EPOCH":3216,"BSTAR":0,"MEAN_MOTION_DOT":-2.74e-6,"MEAN_MOTION_DDOT":0},{"OBJECT_NAME":"LEO 1 (LEO VANTAGE 1)","OBJECT_ID":"2018-004C","EPOCH":"2026-03-06T18:34:25.291776","MEAN_MOTION":14.67149792,"ECCENTRICITY":0.0353186,"INCLINATION":99.2481,"RA_OF_ASC_NODE":330.7154,"ARG_OF_PERICENTER":33.8286,"MEAN_ANOMALY":328.491,"EPHEMERIS_TYPE":0,"CLASSIFICATION_TYPE":"U","NORAD_CAT_ID":43113,"ELEMENT_SET_NO":999,"REV_AT_EPOCH":42246,"BSTAR":0.00041094,"MEAN_MOTION_DOT":5.931e-5,"MEAN_MOTION_DDOT":0},{"OBJECT_NAME":"TELSTAR 19V","OBJECT_ID":"2018-059A","EPOCH":"2026-03-05T11:59:08.244672","MEAN_MOTION":1.00271487,"ECCENTRICITY":6.96e-5,"INCLINATION":0.0204,"RA_OF_ASC_NODE":164.1099,"ARG_OF_PERICENTER":262.4286,"MEAN_ANOMALY":213.4631,"EPHEMERIS_TYPE":0,"CLASSIFICATION_TYPE":"U","NORAD_CAT_ID":43562,"ELEMENT_SET_NO":999,"REV_AT_EPOCH":2810,"BSTAR":0,"MEAN_MOTION_DOT":-2.87e-6,"MEAN_MOTION_DDOT":0},{"OBJECT_NAME":"TELSTAR 18V","OBJECT_ID":"2018-069A","EPOCH":"2026-03-05T18:54:38.721888","MEAN_MOTION":1.00267957,"ECCENTRICITY":0.00020461,"INCLINATION":0.0206,"RA_OF_ASC_NODE":171.4994,"ARG_OF_PERICENTER":178.92,"MEAN_ANOMALY":234.7731,"EPHEMERIS_TYPE":0,"CLASSIFICATION_TYPE":"U","NORAD_CAT_ID":43611,"ELEMENT_SET_NO":999,"REV_AT_EPOCH":2759,"BSTAR":0,"MEAN_MOTION_DOT":0,"MEAN_MOTION_DDOT":0}]
